[{"OBJECT_NAME":"TEVEL2-7","OBJECT_ID":"2025-052AE","EPOCH":"2026-03-09T15:52:01.887744","MEAN_MOTION":15.28414096,"ECCENTRICITY":0.00081048,"INCLINATION":97.4054,"RA_OF_ASC_NODE":324.3041,"ARG_OF_PERICENTER":124.683,"MEAN_ANOMALY":235.5175,"EPHEMERIS_TYPE":0,"CLASSIFICATION_TYPE":"U","NORAD_CAT_ID":63238,"ELEMENT_SET_NO":999,"REV_AT_EPOCH":5480,"BSTAR":0.00069668191,"MEAN_MOTION_DOT":0.00019244,"MEAN_MOTION_DDOT":0},{"OBJECT_NAME":"STARLINK-35356","OBJECT_ID":"2025-221P","EPOCH":"2026-03-09T08:22:21.093600","MEAN_MOTION":15.30201389,"ECCENTRICITY":0.00012478,"INCLINATION":53.1576,"RA_OF_ASC_NODE":89.7528,"ARG_OF_PERICENTER":83.8441,"MEAN_ANOMALY":276.2702,"EPHEMERIS_TYPE":0,"CLASSIFICATION_TYPE":"U","NORAD_CAT_ID":65836,"ELEMENT_SET_NO":999,"REV_AT_EPOCH":2468,"BSTAR":0.00047241541,"MEAN_MOTION_DOT":0.00013659,"MEAN_MOTION_DDOT":0}]
